[{"OBJECT_NAME":"STARLINK-5535","OBJECT_ID":"2023-058AR","EPOCH":"2026-03-09T22:34:46.803936","MEAN_MOTION":15.05644673,"ECCENTRICITY":0.00019745,"INCLINATION":97.6052,"RA_OF_ASC_NODE":71.4563,"ARG_OF_PERICENTER":92.0293,"MEAN_ANOMALY":268.116,"EPHEMERIS_TYPE":0,"CLASSIFICATION_TYPE":"U","NORAD_CAT_ID":56356,"ELEMENT_SET_NO":999,"REV_AT_EPOCH":15823,"BSTAR":5.588258e-6,"MEAN_MOTION_DOT":2.0e-7,"MEAN_MOTION_DDOT":0},{"OBJECT_NAME":"PEGASUS DEB","OBJECT_ID":"1994-029AFX","EPOCH":"2026-03-01T06:33:22.731264","MEAN_MOTION":14.85739755,"ECCENTRICITY":0.0106553,"INCLINATION":81.851,"RA_OF_ASC_NODE":257.2393,"ARG_OF_PERICENTER":271.4617,"MEAN_ANOMALY":87.4394,"EPHEMERIS_TYPE":0,"CLASSIFICATION_TYPE":"U","NORAD_CAT_ID":39924,"ELEMENT_SET_NO":999,"REV_AT_EPOCH":63095,"BSTAR":0.00041812,"MEAN_MOTION_DOT":4.045e-5,"MEAN_MOTION_DDOT":0}]
